NORAD_CAT_ID,OBJECT_NAME,OBJECT_TYPE,EPOCH,MEAN_MOTION,ECCENTRICITY,INCLINATION,RA_OF_ASC_NODE,ARG_OF_PERICENTER,MEAN_ANOMALY,BSTAR,MEAN_MOTION_DOT,MEAN_MOTION_DDOT,TLE_LINE0,TLE_LINE1,TLE_LINE2,SEMIMAJOR_AXIS,PERIOD,APOGEE,PERIGEE,DECAYED
55641.0,STARLINK-5065,PAYLOAD,2023-06-07 14:00:01,15.34886258,0.0003468,69.9984,202.6161,273.5117,349.5265,-0.028708,-0.00895424,0.0,0 STARLINK-5065,1 55641U 23021P   23158.58334491 -.00895424  00000-0 -28708-1 0  9995,2 55641  69.9984 202.6161 0003468 273.5117 349.5265 15.34886258  1301,6839.395,93.818,463.632,458.888,0.0
55641.0,STARLINK-5065,PAYLOAD,2023-06-07 22:00:00,15.3420487,0.0003499,69.9986,201.7273,268.8888,35.0948,-0.027721,-0.0084974,0.0,0 STARLINK-5065,1 55641U 23021P   23158.91667824 -.00849740  00000-0 -27721-1 0  9995,2 55641  69.9986 201.7273 0003499 268.8888  35.0948 15.34204870 17804,6841.42,93.86,465.679,460.891,0.0
55641.0,STARLINK-5065,PAYLOAD,2023-06-08 12:20:49,15.34787401,0.0003358,69.9964,200.14,278.9811,81.0986,-0.0083485,-0.00272626,0.0,0 STARLINK-5065,1 55641U 23021P   23159.51446430 -.00272626  00000-0 -83485-2 0  9993,2 55641  69.9964 200.1400 0003358 278.9811  81.0986 15.34787401 18199,6839.689,93.824,463.851,459.257,0.0
55641.0,STARLINK-5065,PAYLOAD,2023-06-08 14:00:01,15.32927744,0.0003648,69.9987,199.9526,275.3477,108.1511,-0.030466,-0.00893143,0.0,0 STARLINK-5065,1 55641U 23021P   23159.58334491 -.00893143  00000-0 -30466-1 0  9996,2 55641  69.9987 199.9526 0003648 275.3477 108.1511 15.32927744 17906,6845.22,93.938,469.582,464.587,0.0
55641.0,STARLINK-5065,PAYLOAD,2023-06-08 22:00:00,15.32247048,0.0003507,69.9988,199.0665,270.1811,151.9157,-0.029388,-0.0084696,0.0,0 STARLINK-5065,1 55641U 23021P   23159.91667824 -.00846960  00000-0 -29388-1 0  9998,2 55641  69.9988 199.0665 0003507 270.1811 151.9157 15.32247048  1302,6847.247,93.98,471.513,466.71,0.0
55641.0,STARLINK-5065,PAYLOAD,2023-06-09 06:00:00,15.31651886,0.0003485,69.9992,198.1813,270.8814,189.0088,-0.033989,-0.00951777,0.0,0 STARLINK-5065,1 55641U 23021P   23160.25001157 -.00951777  00000-0 -33989-1 0  9993,2 55641  69.9992 198.1813 0003485 270.8814 189.0088 15.31651886 18005,6849.02,94.016,473.272,468.499,0.0
55641.0,STARLINK-5065,PAYLOAD,2023-06-09 11:50:57,15.3293251,0.0004163,69.9975,197.5375,270.6968,89.3732,-0.0082237,-0.00253902,0.0,0 STARLINK-5065,1 55641U 23021P   23160.49372077 -.00253902  00000-0 -82237-2 0  9997,2 55641  69.9975 197.5375 0004163 270.6968  89.3732 15.32932510 18346,6845.205,93.938,469.92,464.221,0.0
55641.0,STARLINK-5065,PAYLOAD,2023-06-09 22:00:00,15.30293555,0.0003332,69.9991,196.4135,267.9238,265.2441,-0.031382,-0.00850533,0.0,0 STARLINK-5065,1 55641U 23021P   23160.91667824 -.00850533  00000-0 -31382-1 0  9998,2 55641  69.9991 196.4135 0003332 267.9238 265.2441 15.30293555 18105,6853.073,94.1,477.221,472.654,0.0
55641.0,STARLINK-5065,PAYLOAD,2023-06-10 06:00:02,15.2968923,0.0003366,69.9995,195.5309,268.4468,300.2351,-0.035804,-0.00955871,0.0,0 STARLINK-5065,1 55641U 23021P   23161.25002315 -.00955871  00000-0 -35804-1 0  9998,2 55641  69.9995 195.5309 0003366 268.4468 300.2351 15.29689230 18152,6854.878,94.137,479.05,474.435,0.0
55641.0,STARLINK-5065,PAYLOAD,2023-06-10 14:00:01,15.29026942,0.0003393,69.9992,194.6493,271.9672,331.3254,-0.035205,-0.00912047,0.0,0 STARLINK-5065,1 55641U 23021P   23161.58334491 -.00912047  00000-0 -35205-1 0  9990,2 55641  69.9992 194.6493 0003393 271.9672 331.3254 15.29026942  1300,6856.857,94.178,481.048,476.395,0.0
55641.0,STARLINK-5065,PAYLOAD,2023-06-10 22:00:00,15.28335052,0.0003388,69.9994,193.7685,265.7407,11.4602,-0.033207,-0.00847451,0.0,0 STARLINK-5065,1 55641U 23021P   23161.91667824 -.00847451  00000-0 -33207-1 0  9992,2 55641  69.9994 193.7685 0003388 265.7407  11.4602 15.28335052 18255,6858.926,94.22,483.115,478.467,0.0
55641.0,STARLINK-5065,PAYLOAD,2023-06-11 06:00:00,15.27730282,0.0003453,69.9996,192.8887,268.1305,42.1737,-0.037915,-0.00953275,0.0,0 STARLINK-5065,1 55641U 23021P   23162.25001157 -.00953275  00000-0 -37915-1 0  9993,2 55641  69.9996 192.8887 0003453 268.1305  42.1737 15.27730282 18318,6860.736,94.257,484.97,480.232,0.0
55641.0,STARLINK-5065,PAYLOAD,2023-06-11 14:00:01,15.27079814,0.0003514,69.9992,192.0096,273.4216,69.2054,-0.037986,-0.00937522,0.0,0 STARLINK-5065,1 55641U 23021P   23162.58334491 -.00937522  00000-0 -37986-1 0  9994,2 55641  69.9992 192.0096 0003514 273.4216  69.2054 15.27079814  1306,6862.684,94.298,486.961,482.138,0.0
55641.0,STARLINK-5065,PAYLOAD,2023-06-11 22:00:00,15.26376139,0.0003454,69.9993,191.1317,267.831,106.362,-0.035067,-0.00843354,0.0,0 STARLINK-5065,1 55641U 23021P   23162.91667824 -.00843354  00000-0 -35067-1 0  9997,2 55641  69.9993 191.1317 0003454 267.8310 106.3620 15.26376139  1309,6864.793,94.341,489.029,484.287,0.0
55641.0,STARLINK-5065,PAYLOAD,2023-06-12 06:00:00,15.25768785,0.0003445,69.9995,190.2545,270.6081,134.3427,-0.039963,-0.00947108,0.0,0 STARLINK-5065,1 55641U 23021P   23163.25001157 -.00947108  00000-0 -39963-1 0  9997,2 55641  69.9995 190.2545 0003445 270.6081 134.3427 15.25768785 18463,6866.615,94.379,490.845,486.114,0.0
55641.0,STARLINK-5065,PAYLOAD,2023-06-12 14:00:01,15.2512862,0.0003408,69.999,189.3781,276.1858,158.8009,-0.040717,-0.00946565,0.0,0 STARLINK-5065,1 55641U 23021P   23163.58335648 -.00946565  00000-0 -40717-1 0  9993,2 55641  69.9990 189.3781 0003408 276.1858 158.8009 15.25128620  1301,6868.536,94.418,492.742,488.06,0.0
55641.0,STARLINK-5065,PAYLOAD,2023-06-12 22:00:00,15.24419413,0.000332,69.9991,188.5028,269.6227,194.5209,-0.03711,-0.00841484,0.0,0 STARLINK-5065,1 55641U 23021P   23163.91667824 -.00841484  00000-0 -37110-1 0  9991,2 55641  69.9991 188.5028 0003320 269.6227 194.5209 15.24419413 18564,6870.666,94.462,494.812,490.25,0.0
55641.0,STARLINK-5065,PAYLOAD,2023-06-13 00:00:00,15.24295273,0.000322,69.9991,188.2842,266.9195,294.3873,-0.040089,-0.00911539,0.0,0 STARLINK-5065,1 55641U 23021P   23164.00001157 -.00911539  00000-0 -40089-1 0  9991,2 55641  69.9991 188.2842 0003220 266.9195 294.3873 15.24295273  1304,6871.039,94.47,495.117,490.692,0.0
55641.0,STARLINK-5065,PAYLOAD,2023-06-13 06:00:02,15.23804832,0.0003307,69.9991,187.6283,271.5528,221.0686,-0.041892,-0.00936735,0.0,0 STARLINK-5065,1 55641U 23021P   23164.25002315 -.00936735  00000-0 -41892-1 0  9993,2 55641  69.9991 187.6283 0003307 271.5528 221.0686 15.23804832 18611,6872.514,94.5,496.651,492.106,0.0
55641.0,STARLINK-5065,PAYLOAD,2023-06-13 14:00:01,15.23174967,0.0003225,69.9987,186.7545,275.6604,244.52,-0.043535,-0.00953987,0.0,0 STARLINK-5065,1 55641U 23021P   23164.58334491 -.00953987  00000-0 -43535-1 0  9996,2 55641  69.9987 186.7545 0003225 275.6604 244.5200 15.23174967  1305,6874.408,94.539,498.49,494.056,0.0
55641.0,STARLINK-5065,PAYLOAD,2023-06-13 22:00:00,15.22464634,0.000321,69.9988,185.8818,268.3486,278.7042,-0.039388,-0.00842489,0.0,0 STARLINK-5065,1 55641U 23021P   23164.91667824 -.00842489  00000-0 -39388-1 0  9997,2 55641  69.9988 185.8818 0003210 268.3486 278.7042 15.22464634  1305,6876.546,94.583,500.619,496.204,0.0
55641.0,STARLINK-5065,PAYLOAD,2023-06-14 14:00:01,15.21223002,0.0003231,69.9983,184.1387,273.6482,324.7479,-0.046658,-0.00964238,0.0,0 STARLINK-5065,1 55641U 23021P   23165.58334491 -.00964238  00000-0 -46658-1 0  9997,2 55641  69.9983 184.1387 0003231 273.6482 324.7479 15.21223002 18812,6880.287,94.661,504.376,499.929,0.0
55641.0,STARLINK-5065,PAYLOAD,2023-06-14 22:00:00,15.20509772,0.0003267,69.9986,183.2685,267.0525,355.8695,-0.041827,-0.00844432,0.0,0 STARLINK-5065,1 55641U 23021P   23165.91667824 -.00844432  00000-0 -41827-1 0  9999,2 55641  69.9986 183.2685 0003267 267.0525 355.8695 15.20509772  1301,6882.439,94.705,506.552,502.055,0.0
55641.0,STARLINK-5065,PAYLOAD,2023-06-15 06:00:00,15.19878824,0.0003295,69.9986,182.3992,270.2388,16.4102,-0.045886,-0.00915405,0.0,0 STARLINK-5065,1 55641U 23021P   23166.25001157 -.00915405  00000-0 -45886-1 0  9996,2 55641  69.9986 182.3992 0003295 270.2388  16.4102 15.19878824 18920,6884.344,94.744,508.477,503.94,0.0
55641.0,STARLINK-5065,PAYLOAD,2023-06-15 14:00:01,15.19268569,0.000333,69.9981,181.5305,273.908,35.6643,-0.049721,-0.00969999,0.0,0 STARLINK-5065,1 55641U 23021P   23166.58334491 -.00969999  00000-0 -49721-1 0  9991,2 55641  69.9981 181.5305 0003330 273.9080  35.6643 15.19268569  1309,6886.187,94.782,510.345,505.759,0.0
55641.0,STARLINK-5065,PAYLOAD,2023-06-15 20:00:01,15.18707931,0.0003174,69.9984,180.8796,268.9291,327.361,-0.043852,-0.00840339,0.0,0 STARLINK-5065,1 55641U 23021P   23166.83334491 -.00840339  00000-0 -43852-1 0  9994,2 55641  69.9984 180.8796 0003174 268.9291 327.3610 15.18707931  1307,6887.882,94.817,511.933,507.56,0.0
55641.0,STARLINK-5065,PAYLOAD,2023-06-16 06:00:00,15.17918793,0.0003338,69.9984,179.7962,271.4521,81.6806,-0.048263,-0.00910015,0.0,0 STARLINK-5065,1 55641U 23021P   23167.25001157 -.00910015  00000-0 -48263-1 0  9991,2 55641  69.9984 179.7962 0003338 271.4521  81.6806 15.17918793 19075,6890.269,94.867,514.434,509.834,0.0
55641.0,STARLINK-5065,PAYLOAD,2023-06-16 14:00:01,15.1731342,0.0003339,69.998,178.9302,275.6153,98.0923,-0.052818,-0.00973476,0.0,0 STARLINK-5065,1 55641U 23021P   23167.58334491 -.00973476  00000-0 -52818-1 0  9998,2 55641  69.9980 178.9302 0003339 275.6153  98.0923 15.17313420  1303,6892.101,94.905,516.267,511.665,0.0
55641.0,STARLINK-5065,PAYLOAD,2023-06-16 22:00:00,15.16603991,0.0003341,69.9982,178.0652,269.7335,123.8041,-0.04754,-0.0086631,0.0,0 STARLINK-5065,1 55641U 23021P   23167.91667824 -.00866310  00000-0 -47540-1 0  9998,2 55641  69.9982 178.0652 0003341 269.7335 123.8041 15.16603991  1305,6894.25,94.949,518.419,513.812,0.0
55641.0,STARLINK-5065,PAYLOAD,2023-06-17 06:00:02,15.15959228,0.0003301,69.9983,177.2009,272.7994,139.8394,-0.050784,-0.00905526,0.0,0 STARLINK-5065,1 55641U 23021P   23168.25002315 -.00905526  00000-0 -50784-1 0  9991,2 55641  69.9983 177.2009 0003301 272.7994 139.8394 15.15959228 19228,6896.205,94.989,520.346,515.794,0.0
